SOYUZ-MS 28             
1 66664U 25275A   26096.00498673  .00007825  00000+0  15107-3 0  9997
2 66664  51.6327 297.3095 0006349 277.1679  82.8588 15.48794122560508
DUPLEX                  
1 66906U 98067XS  26095.86208521  .00030900  00000+0  40798-3 0  9993
2 66906  51.6286 293.3557 0003407 242.5355 117.5291 15.58090473 19368
ISS OBJECT XT           
1 66907U 98067XT  26095.81394862  .00323618  00000+0  15655-2 0  9997
2 66907  51.6217 286.2314 0007626 257.9679 102.0469 15.81038991 19450
ISS OBJECT XU           
1 66908U 98067XU  26095.80859488  .00317413  00000+0  15091-2 0  9997
2 66908  51.6224 286.1921 0007804 256.8765 103.1367 15.81429806 19452
SILVERSAT               
1 66909U 98067XV  26095.73059919  .00511697  10942-3  17462-2 0  9995
2 66909  51.6180 284.8979 0009440 264.4078  95.5851 15.89127269 19461
ISS OBJECT XW           
1 66910U 98067XW  26095.76678366  .00265460  00000+0  14295-2 0  9998
2 66910  51.6196 286.6599 0007677 253.0200 106.9959 15.78843649 19448
ISS OBJECT XX           
1 66911U 98067XX  26095.75372863  .01217551  79992-3  21131-2 0  9997
2 66911  51.6135 282.7499 0012060 272.1994  87.7635 16.01632842 19481
ISS OBJECT XY           
1 66912U 98067XY  26095.82166628  .00142970  00000+0  11568-2 0  9990
2 66912  51.6244 289.3172 0005290 250.7234 109.3192 15.69823635 19406
KNACKSAT-2              
1 67683U 98067XZ  26096.26900440  .00045921  00000+0  69149-3 0  9990
2 67683  51.6311 294.5754 0010721 288.3615  71.6209 15.54283119  9079
CORAL                   
1 67684U 98067YA  26095.72744007  .00105757  00000+0  12984-2 0  9994
2 67684  51.6287 296.2079 0013727 276.4839  83.4591 15.59362518  9000
GXIBA-1                 
1 67685U 98067YB  26095.93443201  .00049066  00000+0  72087-3 0  9991
2 67685  51.6301 296.0905 0012588 283.5726  76.3862 15.54903077  9022
UITMSAT-2               
1 67686U 98067YC  26095.91429815  .00063417  00000+0  88987-3 0  9997
2 67686  51.6302 295.9586 0009685 258.1890 101.8015 15.56078993  9027
HMU-SAT2                
1 67687U 98067YD  26096.26214580  .00050248  00000+0  74598-3 0  9999
2 67687  51.6310 294.5327 0009174 262.6054  97.3894 15.54650173  8993
LEOPARD                 
1 67688U 98067YE  26095.85923402  .00054045  00000+0  77581-3 0  9998
2 67688  51.6303 296.3413 0009334 258.5898 101.4045 15.55534164  8931
CREW DRAGON 12          
1 67796U 26031A   26096.00498673  .00007825  00000+0  15107-3 0  9995
2 67796  51.6327 297.3095 0006349 277.1679  82.8588 15.48794122560550
